{
    "links": {
        "self": "http://www.neowsapp.com/rest/v1/neo/3728934?api_key=iIulBulltgU6a56xZRHN4H3l9WmuAYTsLGpBGhQ2"
    },
    "id": "3728934",
    "neo_reference_id": "3728934",
    "name": "(2015 TL20)",
    "designation": "2015 TL20",
    "nasa_jpl_url": "http://ssd.jpl.nasa.gov/sbdb.cgi?sstr=3728934",
    "absolute_magnitude_h": 23.9,
    "estimated_diameter": {
        "kilometers": {
            "estimated_diameter_min": 0.04411182,
            "estimated_diameter_max": 0.0986370281
        },
        "meters": {
            "estimated_diameter_min": 44.1118199997,
            "estimated_diameter_max": 98.6370281305
        },
        "miles": {
            "estimated_diameter_min": 0.0274098057,
            "estimated_diameter_max": 0.0612901888
        },
        "feet": {
            "estimated_diameter_min": 144.7238235278,
            "estimated_diameter_max": 323.6123073718
        }
    },
    "is_potentially_hazardous_asteroid": false,
    "close_approach_data": [
        {
            "close_approach_date": "2013-01-22",
            "close_approach_date_full": "2013-Jan-22 04:57",
            "epoch_date_close_approach": 1358830620000,
            "relative_velocity": {
                "kilometers_per_second": "18.7262188199",
                "kilometers_per_hour": "67414.387751658",
                "miles_per_hour": "41888.6788782455"
            },
            "miss_distance": {
                "astronomical": "0.3307220826",
                "lunar": "128.6508901314",
                "kilometers": "49475319.118924062",
                "miles": "30742537.7500815756"
            },
            "orbiting_body": "Earth"
        },
        {
            "close_approach_date": "2015-10-27",
            "close_approach_date_full": "2015-Oct-27 23:15",
            "epoch_date_close_approach": 1445987700000,
            "relative_velocity": {
                "kilometers_per_second": "8.592468519",
                "kilometers_per_hour": "30932.8866684118",
                "miles_per_hour": "19220.4928301585"
            },
            "miss_distance": {
                "astronomical": "0.0630951708",
                "lunar": "24.5440214412",
                "kilometers": "9438903.158966196",
                "miles": "5865062.4564216648"
            },
            "orbiting_body": "Earth"
        },
        {
            "close_approach_date": "2018-09-15",
            "close_approach_date_full": "2018-Sep-15 05:21",
            "epoch_date_close_approach": 1536988860000,
            "relative_velocity": {
                "kilometers_per_second": "23.6009006058",
                "kilometers_per_hour": "84963.2421808328",
                "miles_per_hour": "52792.8545650847"
            },
            "miss_distance": {
                "astronomical": "0.4824618048",
                "lunar": "187.6776420672",
                "kilometers": "72175258.354435776",
                "miles": "44847625.9293986688"
            },
            "orbiting_body": "Earth"
        },
        {
            "close_approach_date": "2127-01-30",
            "close_approach_date_full": "2127-Jan-30 16:58",
            "epoch_date_close_approach": 4957001880000,
            "relative_velocity": {
                "kilometers_per_second": "22.3183332712",
                "kilometers_per_hour": "80345.9997764622",
                "miles_per_hour": "49923.8796944356"
            },
            "miss_distance": {
                "astronomical": "0.462792451",
                "lunar": "180.026263439",
                "kilometers": "69232764.92167937",
                "miles": "43019245.293420506"
            },
            "orbiting_body": "Earth"
        }
    ],
    "orbital_data": {
        "orbit_id": "9",
        "orbit_determination_date": "2017-04-06 08:31:36",
        "first_observation_date": "2015-10-05",
        "last_observation_date": "2015-10-24",
        "data_arc_in_days": 19,
        "observations_used": 38,
        "orbit_uncertainty": "7",
        "minimum_orbit_intersection": ".0577222",
        "jupiter_tisserand_invariant": "3.603",
        "epoch_osculation": "2459000.5",
        "eccentricity": ".5340233245497303",
        "semi_major_axis": "2.041540163263377",
        "inclination": "5.492117124923512",
        "ascending_node_longitude": "174.0816712452259",
        "orbital_period": "1065.455508835411",
        "perihelion_distance": ".951310098075669",
        "perihelion_argument": "249.1414957198456",
        "aphelion_distance": "3.131770228451084",
        "perihelion_time": "2459477.816617295782",
        "mean_anomaly": "198.7225174570607",
        "mean_motion": ".3378836535309631",
        "equinox": "J2000",
        "orbit_class": {
            "orbit_class_type": "APO",
            "orbit_class_description": "Near-Earth asteroid orbits which cross the Earth’s orbit similar to that of 1862 Apollo",
            "orbit_class_range": "a (semi-major axis) > 1.0 AU; q (perihelion) < 1.017 AU"
        }
    },
    "is_sentry_object": false
}